[{"OBJECT_NAME":"STARLINK-6036","OBJECT_ID":"2023-078AK","EPOCH":"2026-03-09T22:06:21.683520","MEAN_MOTION":14.98330343,"ECCENTRICITY":0.00027777,"INCLINATION":70.0007,"RA_OF_ASC_NODE":343.9244,"ARG_OF_PERICENTER":269.757,"MEAN_ANOMALY":90.3271,"EPHEMERIS_TYPE":0,"CLASSIFICATION_TYPE":"U","NORAD_CAT_ID":56800,"ELEMENT_SET_NO":999,"REV_AT_EPOCH":15271,"BSTAR":-3.3799051e-5,"MEAN_MOTION_DOT":-4.96e-6,"MEAN_MOTION_DDOT":0},{"OBJECT_NAME":"ION SCV-021","OBJECT_ID":"2025-276DT","EPOCH":"2026-03-09T17:54:19.585728","MEAN_MOTION":14.97286526,"ECCENTRICITY":0.00131375,"INCLINATION":97.5322,"RA_OF_ASC_NODE":142.8125,"ARG_OF_PERICENTER":96.8695,"MEAN_ANOMALY":263.4023,"EPHEMERIS_TYPE":0,"CLASSIFICATION_TYPE":"U","NORAD_CAT_ID":67483,"ELEMENT_SET_NO":999,"REV_AT_EPOCH":772,"BSTAR":0.00021144867,"MEAN_MOTION_DOT":2.399e-5,"MEAN_MOTION_DDOT":0}]
